{"fetched_at":"2026-07-07T18:29:04.699Z","source":"https://celestrak.org/NORAD/elements/gp.php?GROUP=kuiper&FORMAT=JSON","constellation":"kuiper","records":[{"OBJECT_NAME":"KUIPER-00282","OBJECT_ID":"2026-118A","EPOCH":"2026-07-07T10:00:05.000256","CLASSIFICATION_TYPE":"U","MEAN_MOTION":15.30541783,"ECCENTRICITY":0.0011709,"INCLINATION":51.8625,"RA_OF_ASC_NODE":316.2444,"ARG_OF_PERICENTER":264.5756,"MEAN_ANOMALY":71.5316,"EPHEMERIS_TYPE":0,"NORAD_CAT_ID":69267,"ELEMENT_SET_NO":999,"REV_AT_EPOCH":498,"BSTAR":-0.044732,"MEAN_MOTION_DOT":-0.01218559,"MEAN_MOTION_DDOT":0},{"OBJECT_NAME":"KUIPER-00383","OBJECT_ID":"2026-118B","EPOCH":"2026-07-06T15:08:03.244704","CLASSIFICATION_TYPE":"U","MEAN_MOTION":15.33472096,"ECCENTRICITY":0.001038,"INCLINATION":51.8607,"RA_OF_ASC_NODE":319.9387,"ARG_OF_PERICENTER":261.3548,"MEAN_ANOMALY":98.6261,"EPHEMERIS_TYPE":0,"NORAD_CAT_ID":69268,"ELEMENT_SET_NO":999,"REV_AT_EPOCH":696,"BSTAR":0.00057302,"MEAN_MOTION_DOT":0.00018516,"MEAN_MOTION_DDOT":0},{"OBJECT_NAME":"KUIPER-00527","OBJECT_ID":"2026-118C","EPOCH":"2026-07-06T21:10:00.602688","CLASSIFICATION_TYPE":"U","MEAN_MOTION":15.34378674,"ECCENTRICITY":0.0008606,"INCLINATION":51.8615,"RA_OF_ASC_NODE":318.6336,"ARG_OF_PERICENTER":260.1041,"MEAN_ANOMALY":99.8973,"EPHEMERIS_TYPE":0,"NORAD_CAT_ID":69269,"ELEMENT_SET_NO":999,"REV_AT_EPOCH":700,"BSTAR":0.00065307,"MEAN_MOTION_DOT":0.00021778,"MEAN_MOTION_DDOT":0},{"OBJECT_NAME":"KUIPER-00562","OBJECT_ID":"2026-118D","EPOCH":"2026-07-07T10:50:38.964768","CLASSIFICATION_TYPE":"U","MEAN_MOTION":15.37938056,"ECCENTRICITY":0.0000736,"INCLINATION":51.872,"RA_OF_ASC_NODE":314.9975,"ARG_OF_PERICENTER":129.4709,"MEAN_ANOMALY":230.6344,"EPHEMERIS_TYPE":0,"NORAD_CAT_ID":69270,"ELEMENT_SET_NO":999,"REV_AT_EPOCH":710,"BSTAR":0.0013004,"MEAN_MOTION_DOT":0.00049205,"MEAN_MOTION_DDOT":0},{"OBJECT_NAME":"KUIPER-00570","OBJECT_ID":"2026-118E","EPOCH":"2026-07-07T10:00:05.000256","CLASSIFICATION_TYPE":"U","MEAN_MOTION":15.16587925,"ECCENTRICITY":0.0009517,"INCLINATION":51.8697,"RA_OF_ASC_NODE":316.636,"ARG_OF_PERICENTER":268.0085,"MEAN_ANOMALY":201.282,"EPHEMERIS_TYPE":0,"NORAD_CAT_ID":69271,"ELEMENT_SET_NO":999,"REV_AT_EPOCH":571,"BSTAR":-0.060622,"MEAN_MOTION_DOT":-0.0111064,"MEAN_MOTION_DDOT":0},{"OBJECT_NAME":"KUIPER-00572","OBJECT_ID":"2026-118F","EPOCH":"2026-07-07T08:42:16.384032","CLASSIFICATION_TYPE":"U","MEAN_MOTION":15.34815827,"ECCENTRICITY":0.0006473,"INCLINATION":51.8687,"RA_OF_ASC_NODE":315.8935,"ARG_OF_PERICENTER":246.2188,"MEAN_ANOMALY":113.8119,"EPHEMERIS_TYPE":0,"NORAD_CAT_ID":69272,"ELEMENT_SET_NO":999,"REV_AT_EPOCH":708,"BSTAR":0.00053849,"MEAN_MOTION_DOT":0.00018127,"MEAN_MOTION_DDOT":0},{"OBJECT_NAME":"KUIPER-00581","OBJECT_ID":"2026-118G","EPOCH":"2026-07-07T10:00:05.000256","CLASSIFICATION_TYPE":"U","MEAN_MOTION":15.18130467,"ECCENTRICITY":0.0007447,"INCLINATION":51.8808,"RA_OF_ASC_NODE":316.2989,"ARG_OF_PERICENTER":263.581,"MEAN_ANOMALY":33.2105,"EPHEMERIS_TYPE":0,"NORAD_CAT_ID":69273,"ELEMENT_SET_NO":999,"REV_AT_EPOCH":471,"BSTAR":-0.062069,"MEAN_MOTION_DOT":-0.01182019,"MEAN_MOTION_DDOT":0},{"OBJECT_NAME":"KUIPER-00584","OBJECT_ID":"2026-118H","EPOCH":"2026-07-07T10:00:05.000256","CLASSIFICATION_TYPE":"U","MEAN_MOTION":15.04802587,"ECCENTRICITY":0.0012395,"INCLINATION":51.8827,"RA_OF_ASC_NODE":317.7046,"ARG_OF_PERICENTER":286.9094,"MEAN_ANOMALY":357.1469,"EPHEMERIS_TYPE":0,"NORAD_CAT_ID":69274,"ELEMENT_SET_NO":999,"REV_AT_EPOCH":568,"BSTAR":-0.0053287,"MEAN_MOTION_DOT":-0.00075701,"MEAN_MOTION_DDOT":0},{"OBJECT_NAME":"KUIPER-00587","OBJECT_ID":"2026-118J","EPOCH":"2026-07-07T08:42:00.222048","CLASSIFICATION_TYPE":"U","MEAN_MOTION":15.37047653,"ECCENTRICITY":0.0006492,"INCLINATION":51.8636,"RA_OF_ASC_NODE":315.8716,"ARG_OF_PERICENTER":263.1189,"MEAN_ANOMALY":96.9059,"EPHEMERIS_TYPE":0,"NORAD_CAT_ID":69275,"ELEMENT_SET_NO":999,"REV_AT_EPOCH":708,"BSTAR":0.00059063,"MEAN_MOTION_DOT":0.00021428,"MEAN_MOTION_DDOT":0},{"OBJECT_NAME":"KUIPER-00590","OBJECT_ID":"2026-118K","EPOCH":"2026-07-07T10:00:05.000256","CLASSIFICATION_TYPE":"U","MEAN_MOTION":15.30405616,"ECCENTRICITY":0.0000721,"INCLINATION":51.8731,"RA_OF_ASC_NODE":315.4662,"ARG_OF_PERICENTER":328.8167,"MEAN_ANOMALY":62.8157,"EPHEMERIS_TYPE":0,"NORAD_CAT_ID":69276,"ELEMENT_SET_NO":999,"REV_AT_EPOCH":398,"BSTAR":0.000049599,"MEAN_MOTION_DOT":0.00001119,"MEAN_MOTION_DDOT":0},{"OBJECT_NAME":"KUIPER-00592","OBJECT_ID":"2026-118L","EPOCH":"2026-07-07T10:00:05.000256","CLASSIFICATION_TYPE":"U","MEAN_MOTION":15.30138054,"ECCENTRICITY":0.0002066,"INCLINATION":51.8759,"RA_OF_ASC_NODE":315.4666,"ARG_OF_PERICENTER":181.4182,"MEAN_ANOMALY":217.2841,"EPHEMERIS_TYPE":0,"NORAD_CAT_ID":69277,"ELEMENT_SET_NO":999,"REV_AT_EPOCH":329,"BSTAR":0.00011941,"MEAN_MOTION_DOT":0.00003174,"MEAN_MOTION_DDOT":0},{"OBJECT_NAME":"KUIPER-00593","OBJECT_ID":"2026-118M","EPOCH":"2026-07-07T10:58:07.836960","CLASSIFICATION_TYPE":"U","MEAN_MOTION":15.38647938,"ECCENTRICITY":0.0002898,"INCLINATION":51.871,"RA_OF_ASC_NODE":315.0332,"ARG_OF_PERICENTER":250.4454,"MEAN_ANOMALY":109.622,"EPHEMERIS_TYPE":0,"NORAD_CAT_ID":69278,"ELEMENT_SET_NO":999,"REV_AT_EPOCH":716,"BSTAR":0.00052362,"MEAN_MOTION_DOT":0.00019965,"MEAN_MOTION_DDOT":0},{"OBJECT_NAME":"KUIPER-00594","OBJECT_ID":"2026-118N","EPOCH":"2026-07-07T10:48:48.377088","CLASSIFICATION_TYPE":"U","MEAN_MOTION":15.37306049,"ECCENTRICITY":0.0001496,"INCLINATION":51.871,"RA_OF_ASC_NODE":314.9916,"ARG_OF_PERICENTER":58.0433,"MEAN_ANOMALY":302.0699,"EPHEMERIS_TYPE":0,"NORAD_CAT_ID":69279,"ELEMENT_SET_NO":999,"REV_AT_EPOCH":710,"BSTAR":0.00049233,"MEAN_MOTION_DOT":0.00017931,"MEAN_MOTION_DDOT":0},{"OBJECT_NAME":"KUIPER-00595","OBJECT_ID":"2026-118P","EPOCH":"2026-07-07T10:52:43.425696","CLASSIFICATION_TYPE":"U","MEAN_MOTION":15.3731729,"ECCENTRICITY":0.000057,"INCLINATION":51.8724,"RA_OF_ASC_NODE":315.0077,"ARG_OF_PERICENTER":336.0575,"MEAN_ANOMALY":24.0385,"EPHEMERIS_TYPE":0,"NORAD_CAT_ID":69280,"ELEMENT_SET_NO":999,"REV_AT_EPOCH":713,"BSTAR":0.00056703,"MEAN_MOTION_DOT":0.00020726,"MEAN_MOTION_DDOT":0},{"OBJECT_NAME":"KUIPER-00596","OBJECT_ID":"2026-118Q","EPOCH":"2026-07-07T10:00:05.000256","CLASSIFICATION_TYPE":"U","MEAN_MOTION":15.04998645,"ECCENTRICITY":0.0011693,"INCLINATION":51.8807,"RA_OF_ASC_NODE":317.5707,"ARG_OF_PERICENTER":274.8198,"MEAN_ANOMALY":93.8867,"EPHEMERIS_TYPE":0,"NORAD_CAT_ID":69281,"ELEMENT_SET_NO":999,"REV_AT_EPOCH":488,"BSTAR":-0.0046593,"MEAN_MOTION_DOT":-0.00066644,"MEAN_MOTION_DDOT":0},{"OBJECT_NAME":"KUIPER-00597","OBJECT_ID":"2026-118R","EPOCH":"2026-07-06T19:57:28.871424","CLASSIFICATION_TYPE":"U","MEAN_MOTION":15.37581302,"ECCENTRICITY":0.0006153,"INCLINATION":51.8664,"RA_OF_ASC_NODE":318.3228,"ARG_OF_PERICENTER":252.7969,"MEAN_ANOMALY":107.2344,"EPHEMERIS_TYPE":0,"NORAD_CAT_ID":69282,"ELEMENT_SET_NO":999,"REV_AT_EPOCH":700,"BSTAR":0.00068379,"MEAN_MOTION_DOT":0.00025319,"MEAN_MOTION_DDOT":0},{"OBJECT_NAME":"KUIPER-00599","OBJECT_ID":"2026-118S","EPOCH":"2026-07-06T15:07:45.443712","CLASSIFICATION_TYPE":"U","MEAN_MOTION":15.37820901,"ECCENTRICITY":0.0005717,"INCLINATION":51.8705,"RA_OF_ASC_NODE":319.2343,"ARG_OF_PERICENTER":245.3779,"MEAN_ANOMALY":114.6613,"EPHEMERIS_TYPE":0,"NORAD_CAT_ID":69283,"ELEMENT_SET_NO":999,"REV_AT_EPOCH":697,"BSTAR":0.00062109,"MEAN_MOTION_DOT":0.00023134,"MEAN_MOTION_DDOT":0},{"OBJECT_NAME":"KUIPER-00600","OBJECT_ID":"2026-118T","EPOCH":"2026-07-07T08:38:33.439200","CLASSIFICATION_TYPE":"U","MEAN_MOTION":15.37253852,"ECCENTRICITY":0.0007876,"INCLINATION":51.8651,"RA_OF_ASC_NODE":315.8602,"ARG_OF_PERICENTER":257.4442,"MEAN_ANOMALY":102.5664,"EPHEMERIS_TYPE":0,"NORAD_CAT_ID":69284,"ELEMENT_SET_NO":999,"REV_AT_EPOCH":708,"BSTAR":0.00051817,"MEAN_MOTION_DOT":0.00018877,"MEAN_MOTION_DDOT":0},{"OBJECT_NAME":"KUIPER-00601","OBJECT_ID":"2026-118U","EPOCH":"2026-07-07T10:00:05.000256","CLASSIFICATION_TYPE":"U","MEAN_MOTION":15.2939531,"ECCENTRICITY":0.0003866,"INCLINATION":51.8765,"RA_OF_ASC_NODE":315.5205,"ARG_OF_PERICENTER":236.9377,"MEAN_ANOMALY":116.6594,"EPHEMERIS_TYPE":0,"NORAD_CAT_ID":69285,"ELEMENT_SET_NO":999,"REV_AT_EPOCH":531,"BSTAR":0.00039244,"MEAN_MOTION_DOT":0.00011008,"MEAN_MOTION_DDOT":0},{"OBJECT_NAME":"KUIPER-00602","OBJECT_ID":"2026-118V","EPOCH":"2026-07-07T09:19:59.772000","CLASSIFICATION_TYPE":"U","MEAN_MOTION":15.38756102,"ECCENTRICITY":0.0002111,"INCLINATION":51.8705,"RA_OF_ASC_NODE":315.3268,"ARG_OF_PERICENTER":244.5785,"MEAN_ANOMALY":115.4984,"EPHEMERIS_TYPE":0,"NORAD_CAT_ID":69286,"ELEMENT_SET_NO":999,"REV_AT_EPOCH":709,"BSTAR":0.00061227,"MEAN_MOTION_DOT":0.00023507,"MEAN_MOTION_DDOT":0},{"OBJECT_NAME":"KUIPER-00603","OBJECT_ID":"2026-118W","EPOCH":"2026-07-07T10:00:05.000256","CLASSIFICATION_TYPE":"U","MEAN_MOTION":15.38095408,"ECCENTRICITY":0.0004758,"INCLINATION":51.8682,"RA_OF_ASC_NODE":315.3589,"ARG_OF_PERICENTER":247.2266,"MEAN_ANOMALY":181.9007,"EPHEMERIS_TYPE":0,"NORAD_CAT_ID":69287,"ELEMENT_SET_NO":999,"REV_AT_EPOCH":578,"BSTAR":0.000018792,"MEAN_MOTION_DOT":0.0000032,"MEAN_MOTION_DDOT":0},{"OBJECT_NAME":"KUIPER-00605","OBJECT_ID":"2026-118X","EPOCH":"2026-07-07T10:00:05.000256","CLASSIFICATION_TYPE":"U","MEAN_MOTION":15.18350996,"ECCENTRICITY":0.0003798,"INCLINATION":51.8786,"RA_OF_ASC_NODE":316.249,"ARG_OF_PERICENTER":245.7303,"MEAN_ANOMALY":128.5396,"EPHEMERIS_TYPE":0,"NORAD_CAT_ID":69288,"ELEMENT_SET_NO":999,"REV_AT_EPOCH":238,"BSTAR":-0.086244,"MEAN_MOTION_DOT":-0.01627242,"MEAN_MOTION_DDOT":0},{"OBJECT_NAME":"KUIPER-00606","OBJECT_ID":"2026-118Y","EPOCH":"2026-07-07T11:10:16.251168","CLASSIFICATION_TYPE":"U","MEAN_MOTION":15.38203141,"ECCENTRICITY":0.000323,"INCLINATION":51.8702,"RA_OF_ASC_NODE":315.088,"ARG_OF_PERICENTER":249.7449,"MEAN_ANOMALY":110.3191,"EPHEMERIS_TYPE":0,"NORAD_CAT_ID":69289,"ELEMENT_SET_NO":999,"REV_AT_EPOCH":710,"BSTAR":0.00067515,"MEAN_MOTION_DOT":0.00025501,"MEAN_MOTION_DDOT":0}]}
